[{"name":"SHIJIAN-17 (SJ-17)","l1":"1 41838U 16065A   26183.41089788  .00000131  00000+0  00000+0 0  9990","l2":"2 41838   5.7891  72.4241 0002197  35.3187 173.7243  0.99860955 35356","cat":"geostationary"},{"name":"GOES 16","l1":"1 41866U 16071A   26183.70436984 -.00000080  00000+0  00000+0 0  9998","l2":"2 41866   0.3771  85.5912 0000562  33.2401 310.7945  1.00272031 35251","cat":"geostationary"},{"name":"TIANLIAN 1-04","l1":"1 41869U 16072A   26183.76016258  .00000042  00000+0  00000+0 0  9993","l2":"2 41869   0.9077  82.8772 0043632  90.6048 197.8199  1.00274884 35457","cat":"geostationary"},{"name":"WGS F8 (USA 272)","l1":"1 41879U 16075A   26183.69725612  .00000000  00000+0  00000+0 0  9994","l2":"2 41879   0.0473  61.2531 0000013  12.5831 247.7729  1.00267077 34978","cat":"geostationary"},{"name":"FENGYUN 4A","l1":"1 41882U 16077A   26183.82775139 -.00000347  00000+0  00000+0 0  9999","l2":"2 41882   2.3604  80.1191 0007921 158.0007 104.4703  1.00275999 35087","cat":"geostationary"},{"name":"ECHOSTAR 19","l1":"1 41893U 16079A   26183.63461993 -.00000129  00000+0  00000+0 0  9990","l2":"2 41893   0.0183  29.6206 0001703  84.7699 297.6529  1.00276643 34857","cat":"geostationary"},{"name":"JCSAT-110A (JCSAT-15)","l1":"1 41903U 16082A   26183.75814375 -.00000340  00000+0  00000+0 0  9990","l2":"2 41903   0.0186  17.6479 0000815  94.3380 191.8068  1.00270364 34912","cat":"geostationary"},{"name":"STAR ONE D1","l1":"1 41904U 16082B   26183.56595300  .00000000  00000+0  00000+0 0  9996","l2":"2 41904   0.0416  61.8527 0002154  57.7959 280.7351  1.00268075 34927","cat":"geostationary"},{"name":"TJS-2","l1":"1 41911U 17001A   26183.80181168  .00000003  00000+0  00000+0 0  9999","l2":"2 41911   0.8714  85.1414 0000847  58.4842 132.4186  1.00273104 34876","cat":"geostationary"},{"name":"SBIRS GEO-4 (USA 273)","l1":"1 41937U 17004A   26183.74313057  .00000136  00000+0  00000+0 0  9994","l2":"2 41937   2.2709  43.6696 0002976  59.0053 106.7480  1.00287132 34755","cat":"geostationary"},{"name":"HISPASAT 36W-1","l1":"1 41942U 17006A   26183.71807262 -.00000234  00000+0  00000+0 0  9995","l2":"2 41942   0.0077 320.2144 0000966 145.4932  37.5506  1.00270869 34401","cat":"geostationary"},{"name":"TELKOM 3S","l1":"1 41944U 17007A   26183.73073597 -.00000352  00000+0  00000+0 0  9997","l2":"2 41944   0.0156 316.1559 0002448 146.6219 199.0477  1.00269819 34294","cat":"geostationary"},{"name":"INTELSAT 32E (IS-32E)","l1":"1 41945U 17007B   26183.43143799  .00000000  00000+0  00000+0 0  9996","l2":"2 41945   0.0218  28.0694 0000954 325.1520  39.3916  1.00263397 34370","cat":"geostationary"},{"name":"ECHOSTAR 23","l1":"1 42070U 17014A   26183.63210660 -.00000046  00000+0  00000+0 0  9999","l2":"2 42070   0.0187  36.0750 0001863  59.4884 302.7662  1.00268078 34070","cat":"geostationary"},{"name":"WGS F9 (USA 275)","l1":"1 42075U 17016A   26183.65149640  .00000000  00000+0  00000+0 0  9996","l2":"2 42075   0.0239  13.1593 0000436 106.1440  23.9387  1.00267739 34054","cat":"geostationary"},{"name":"SES-10","l1":"1 42432U 17017A   26183.56933301 -.00000262  00000+0  00000+0 0  9990","l2":"2 42432   0.0186  42.4916 0003014  63.1872 312.9916  1.00273517 33905","cat":"geostationary"},{"name":"CHINASAT 16 (SJ-13)","l1":"1 42662U 17018A   26183.81804067 -.00000342  00000+0  00000+0 0  9999","l2":"2 42662   0.0946  89.3441 0004339 128.8325 107.6683  1.00278955 33901","cat":"geostationary"},{"name":"KOREASAT 7","l1":"1 42691U 17023A   26183.73001425 -.00000351  00000+0  00000+0 0  9995","l2":"2 42691   0.0214 341.0778 0000682  86.8237 231.5267  1.00267398 33526","cat":"geostationary"},{"name":"SGDC","l1":"1 42692U 17023B   26183.42889498 -.00000239  00000+0  00000+0 0  9991","l2":"2 42692   0.0108 331.8007 0002785 135.0664 253.1593  1.00270805 33550","cat":"geostationary"},{"name":"GSAT-9","l1":"1 42695U 17024A   26183.75353792 -.00000276  00000+0  00000+0 0  9995","l2":"2 42695   0.0567  90.8953 0002130  20.8769 177.6081  1.00272624 33457","cat":"geostationary"},{"name":"INMARSAT 5-F4","l1":"1 42698U 17025A   26183.78648345  .00000000  00000+0  00000+0 0  9997","l2":"2 42698   0.0247  41.3598 0000572 139.3810  79.7227  1.00268372 33439","cat":"geostationary"},{"name":"SES-15","l1":"1 42709U 17026A   26183.69960315  .00000071  00000+0  00000+0 0  9993","l2":"2 42709   0.0224 333.2990 0000650 116.3241 313.8103  1.00268893  7586","cat":"geostationary"},{"name":"QZS-2 (MICHIBIKI-2)","l1":"1 42738U 17028A   26183.47001066 -.00000108  00000+0  00000+0 0  9994","l2":"2 42738  39.4044 242.9285 0758655 269.4438  79.5216  1.00279990  7772","cat":"geostationary"},{"name":"VIASAT-2","l1":"1 42740U 17029A   26183.56872633 -.00000254  00000+0  00000+0 0  9996","l2":"2 42740   0.0220 295.9562 0000414 128.6843 350.8345  1.00269077 33356","cat":"geostationary"},{"name":"EUTELSAT 172B","l1":"1 42741U 17029B   26183.68790308  .00000005  00000+0  00000+0 0  9991","l2":"2 42741   0.0269 120.9806 0000250 314.1952 265.1948  1.00271319 33897","cat":"geostationary"},{"name":"GSAT-19","l1":"1 42747U 17031A   26183.76514593  .00000136  00000+0  00000+0 0  9994","l2":"2 42747   0.0038 122.7837 0006935 317.7152 163.6350  1.00273565 33308","cat":"geostationary"},{"name":"ECHOSTAR 21","l1":"1 42749U 17032A   26183.65591641  .00000077  00000+0  00000+0 0  9998","l2":"2 42749   1.7699 356.6721 0002540  92.7120  77.7075  1.00270441 33257","cat":"geostationary"},{"name":"BULGARIASAT-1","l1":"1 42801U 17038A   26183.72552597  .00000022  00000+0  00000+0 0  9998","l2":"2 42801   0.0440  77.6640 0003035  29.3891  76.7820  1.00271110 33007","cat":"geostationary"},{"name":"HELLAS-SAT 3","l1":"1 42814U 17040A   26183.75744220  .00000163  00000+0  00000+0 0  9990","l2":"2 42814   0.0509  48.5646 0004045  15.7329 168.1661  1.00272201 32962","cat":"geostationary"},{"name":"GSAT-17","l1":"1 42815U 17040B   26183.80370089 -.00000247  00000+0  00000+0 0  9999","l2":"2 42815   0.0418  87.7648 0001405 190.6329  25.2709  1.00270421 32945","cat":"geostationary"},{"name":"INTELSAT 35E (IS-35E)","l1":"1 42818U 17041A   26183.71833262  .00000000  00000+0  00000+0 0  9996","l2":"2 42818   0.0225  35.4628 0001993  63.0723  46.3178  1.00271477 32974","cat":"geostationary"},{"name":"COSMOS 2520","l1":"1 42907U 17046A   26183.23504196  .00000148  00000+0  00000+0 0  9991","l2":"2 42907   0.0408 105.0003 0000565   9.5607 295.2988  1.00268661 32545","cat":"geostationary"}]