OBJECT_NAME,OBJECT_ID,EPOCH,MEAN_MOTION,ECCENTRICITY,INCLINATION,RA_OF_ASC_NODE,ARG_OF_PERICENTER,MEAN_ANOMALY,EPHEMERIS_TYPE,CLASSIFICATION_TYPE,NORAD_CAT_ID,ELEMENT_SET_NO,REV_AT_EPOCH,BSTAR,MEAN_MOTION_DOT,MEAN_MOTION_DDOT
SHIJIAN-17 (SJ-17),2016-065A,2026-07-02T09:51:41.576832,0.99860955,.0002197,5.7891,72.4241,35.3187,173.7243,0,U,41838,999,3535,0,.131E-5,0
GOES 16,2016-071A,2026-07-02T16:54:17.554176,1.00272031,.0000562,0.3771,85.5912,33.2401,310.7945,0,U,41866,999,3525,0,-.8E-6,0
TIANLIAN 1-04,2016-072A,2026-07-02T18:14:38.046912,1.00274884,.0043632,0.9077,82.8772,90.6048,197.8199,0,U,41869,999,3545,0,.42E-6,0
WGS F8 (USA 272),2016-075A,2026-07-02T16:44:02.928768,1.00267077,.0000013,0.0473,61.2531,12.5831,247.7729,0,U,41879,999,3497,0,0,0
FENGYUN 4A,2016-077A,2026-07-02T19:51:57.720096,1.00275999,.0007921,2.3604,80.1191,158.0007,104.4703,0,U,41882,999,3508,0,-.347E-5,0
ECHOSTAR 19,2016-079A,2026-07-02T15:13:51.161952,1.00276643,.0001703,0.0183,29.6206,84.7699,297.6529,0,U,41893,999,3485,0,-.129E-5,0
JCSAT-110A (JCSAT-15),2016-082A,2026-07-02T18:11:43.620000,1.00270364,.0000815,0.0186,17.6479,94.3380,191.8068,0,U,41903,999,3491,0,-.34E-5,0
STAR ONE D1,2016-082B,2026-07-02T13:34:58.339200,1.00268075,.0002154,0.0416,61.8527,57.7959,280.7351,0,U,41904,999,3492,0,0,0
TJS-2,2017-001A,2026-07-02T19:14:36.529152,1.00273104,.0000847,0.8714,85.1414,58.4842,132.4186,0,U,41911,999,3487,0,.3E-7,0
SBIRS GEO-4 (USA 273),2017-004A,2026-07-02T17:50:06.481248,1.00287132,.0002976,2.2709,43.6696,59.0053,106.7480,0,U,41937,999,3475,0,.136E-5,0
HISPASAT 36W-1,2017-006A,2026-07-02T17:14:01.474368,1.00270869,.0000966,0.0077,320.2144,145.4932,37.5506,0,U,41942,999,3440,0,-.234E-5,0
TELKOM 3S,2017-007A,2026-07-02T17:32:15.587808,1.00269819,.0002448,0.0156,316.1559,146.6219,199.0477,0,U,41944,999,3429,0,-.352E-5,0
INTELSAT 32E (IS-32E),2017-007B,2026-07-02T10:21:16.242336,1.00263397,.0000954,0.0218,28.0694,325.1520,39.3916,0,U,41945,999,3437,0,0,0
ECHOSTAR 23,2017-014A,2026-07-02T15:10:14.010240,1.00268078,.0001863,0.0187,36.0750,59.4884,302.7662,0,U,42070,999,3407,0,-.46E-6,0
WGS F9 (USA 275),2017-016A,2026-07-02T15:38:09.288960,1.00267739,.0000436,0.0239,13.1593,106.1440,23.9387,0,U,42075,999,3405,0,0,0
SES-10,2017-017A,2026-07-02T13:39:50.372064,1.00273517,.0003014,0.0186,42.4916,63.1872,312.9916,0,U,42432,999,3390,0,-.262E-5,0
CHINASAT 16 (SJ-13),2017-018A,2026-07-02T19:37:58.713888,1.00278955,.0004339,0.0946,89.3441,128.8325,107.6683,0,U,42662,999,3390,0,-.342E-5,0
KOREASAT 7,2017-023A,2026-07-02T17:31:13.231200,1.00267398,.0000682,0.0214,341.0778,86.8237,231.5267,0,U,42691,999,3352,0,-.351E-5,0
SGDC,2017-023B,2026-07-02T10:17:36.526272,1.00270805,.0002785,0.0108,331.8007,135.0664,253.1593,0,U,42692,999,3355,0,-.239E-5,0
GSAT-9,2017-024A,2026-07-02T18:05:05.676288,1.00272624,.000213,0.0567,90.8953,20.8769,177.6081,0,U,42695,999,3345,0,-.276E-5,0
INMARSAT 5-F4,2017-025A,2026-07-02T18:52:32.170080,1.00268372,.0000572,0.0247,41.3598,139.3810,79.7227,0,U,42698,999,3343,0,0,0
SES-15,2017-026A,2026-07-02T16:47:25.712160,1.00268893,.000065,0.0224,333.2990,116.3241,313.8103,0,U,42709,999,758,0,.71E-6,0
QZS-2 (MICHIBIKI-2),2017-028A,2026-07-02T11:16:48.921024,1.00279990,.0758655,39.4044,242.9285,269.4438,79.5216,0,U,42738,999,777,0,-.108E-5,0
VIASAT-2,2017-029A,2026-07-02T13:38:57.954912,1.00269077,.0000414,0.0220,295.9562,128.6843,350.8345,0,U,42740,999,3335,0,-.254E-5,0
EUTELSAT 172B,2017-029B,2026-07-02T16:30:34.826112,1.00271319,.000025,0.0269,120.9806,314.1952,265.1948,0,U,42741,999,3389,0,.5E-7,0
GSAT-19,2017-031A,2026-07-02T18:21:48.608352,1.00273565,.0006935,0.0038,122.7837,317.7152,163.6350,0,U,42747,999,3330,0,.136E-5,0
ECHOSTAR 21,2017-032A,2026-07-02T15:44:31.177824,1.00270441,.000254,1.7699,356.6721,92.7120,77.7075,0,U,42749,999,3325,0,.77E-6,0
BULGARIASAT-1,2017-038A,2026-07-02T17:24:45.443808,1.00271110,.0003035,0.0440,77.6640,29.3891,76.7820,0,U,42801,999,3300,0,.22E-6,0
HELLAS-SAT 3,2017-040A,2026-07-02T18:10:43.006080,1.00272201,.0004045,0.0509,48.5646,15.7329,168.1661,0,U,42814,999,3296,0,.163E-5,0
GSAT-17,2017-040B,2026-07-02T19:17:19.756896,1.00270421,.0001405,0.0418,87.7648,190.6329,25.2709,0,U,42815,999,3294,0,-.247E-5,0
INTELSAT 35E (IS-35E),2017-041A,2026-07-02T17:14:23.938368,1.00271477,.0001993,0.0225,35.4628,63.0723,46.3178,0,U,42818,999,3297,0,0,0
COSMOS 2520,2017-046A,2026-07-02T05:38:27.625344,1.00268661,.0000565,0.0408,105.0003,9.5607,295.2988,0,U,42907,999,3254,0,.148E-5,0
